[{"OBJECT_NAME":"STARLINK-34279","OBJECT_ID":"2025-127V","EPOCH":"2026-03-09T09:01:01.689600","MEAN_MOTION":15.27578353,"ECCENTRICITY":0.00010928,"INCLINATION":43.0024,"RA_OF_ASC_NODE":182.0264,"ARG_OF_PERICENTER":240.6814,"MEAN_ANOMALY":119.3928,"EPHEMERIS_TYPE":0,"CLASSIFICATION_TYPE":"U","NORAD_CAT_ID":64389,"ELEMENT_SET_NO":999,"REV_AT_EPOCH":4241,"BSTAR":0.0009842521,"MEAN_MOTION_DOT":0.0002692,"MEAN_MOTION_DDOT":0},{"OBJECT_NAME":"ELECTRON KICK STAGE R\/B","OBJECT_ID":"2024-047B","EPOCH":"2026-03-09T21:11:54.433824","MEAN_MOTION":15.27307897,"ECCENTRICITY":0.00092426,"INCLINATION":97.6338,"RA_OF_ASC_NODE":46.9382,"ARG_OF_PERICENTER":20.6031,"MEAN_ANOMALY":339.5579,"EPHEMERIS_TYPE":0,"CLASSIFICATION_TYPE":"U","NORAD_CAT_ID":59225,"ELEMENT_SET_NO":999,"REV_AT_EPOCH":10999,"BSTAR":0.00091229405,"MEAN_MOTION_DOT":0.00024409,"MEAN_MOTION_DDOT":0}]
